{"type":"FeatureCollection","features":[{"type":"Feature","geometry":{"type":"Point","coordinates":[-122.561931,45.509155]},"properties":{"Address":"SE 98th Ave & Stephens St","SubArea":"OE","Property":"Cherry Blossom Park","PropertyID":1,"OwnedAcres":0.77,"UnownedAcres":0,"Zip":97216,"YearAcquired":1995}},{"type":"Feature","geometry":{"type":"Point","coordinates":[-122.550905,45.509017]},"properties":{"Address":"SE 110th Ave & Stephens St","SubArea":"OE","Property":"Cherry Park","PropertyID":2,"OwnedAcres":10.33,"UnownedAcres":0,"Zip":97216,"YearAcquired":1985}},{"type":"Feature","geometry":{"type":"Point","coordinates":[-122.758471,45.606707]},"properties":{"Address":"9360 N Columbia Blvd","SubArea":"N","Property":"Chimney Park","PropertyID":5,"OwnedAcres":18.32,"UnownedAcres":0,"Zip":97203,"YearAcquired":1932}},{"type":"Feature","geometry":{"type":"Point","coordinates":[-122.672957,45.525664]},"properties":{"Address":"NW 3rd Ave & Everett St","SubArea":"CC/NW","Property":"Lan Su Chinese Garden","PropertyID":8,"OwnedAcres":0.9,"UnownedAcres":0,"Zip":97209,"YearAcquired":2000}},{"type":"Feature","geometry":{"type":"Point","coordinates":[-122.647342,45.50381]},"properties":{"Address":"SE 18th Ave & Clinton St","SubArea":"SE","Property":"Clinton Community Garden","PropertyID":9,"OwnedAcres":0.42,"UnownedAcres":0,"Zip":97214,"YearAcquired":1994}},{"type":"Feature","geometry":{"type":"Point","coordinates":[-122.645911,45.51553]},"properties":{"Address":"SE 20th Ave & Taylor St","SubArea":"SE","Property":"Colonel Summers Community Garden","PropertyID":11,"OwnedAcres":0.78,"UnownedAcres":0,"Zip":97214,"YearAcquired":1975}},{"type":"Feature","geometry":{"type":"Point","coordinates":[-122.65937,45.593822]},"properties":{"Address":"10040 NE 6th Ave","SubArea":"NE","Property":"Columbia Children's Arboretum","PropertyID":15,"OwnedAcres":28.8,"UnownedAcres":0,"Zip":97211,"YearAcquired":1999}},{"type":"Feature","geometry":{"type":"Point","coordinates":[-122.630472,45.494557]},"properties":{"Address":"3350 SE Francis St","SubArea":"SE","Property":"Community Music Center","PropertyID":21,"OwnedAcres":0.23,"UnownedAcres":0,"Zip":97202,"YearAcquired":1969}},{"type":"Feature","geometry":{"type":"Point","coordinates":[-122.671255,45.489887]},"properties":{"Address":"SW Hamilton Ct (off Landing Dr)","SubArea":"SW","Property":"Cottonwood Bay","PropertyID":22,"OwnedAcres":0.67,"UnownedAcres":0,"Zip":97219,"YearAcquired":1995}},{"type":"Feature","geometry":{"type":"Point","coordinates":[-122.618628,45.562309]},"properties":{"Address":"NE 42nd Ave & Killingworth St","SubArea":"NE","Property":"Cully Community Garden","PropertyID":28,"OwnedAcres":0.4,"UnownedAcres":0,"Zip":97218,"YearAcquired":1993}},{"type":"Feature","geometry":{"type":"Point","coordinates":[-122.667382,45.5442]},"properties":{"Address":"N Stanton St & Williams Ave","SubArea":"NE","Property":"Dawson Park","PropertyID":33,"OwnedAcres":2.05,"UnownedAcres":0,"Zip":97227,"YearAcquired":1921}},{"type":"Feature","geometry":{"type":"Point","coordinates":[-122.680193,45.598739]},"properties":{"Address":"N Denver Ave & Martin Luther King Jr Blvd","SubArea":"N","Property":"Delta Park","PropertyID":34,"OwnedAcres":86.79,"UnownedAcres":0,"Zip":97217,"YearAcquired":1950}},{"type":"Feature","geometry":{"type":"Point","coordinates":[-122.671219,45.551426]},"properties":{"Address":"510 N Shaver St","SubArea":"NE","Property":"Unthank Park","PropertyID":37,"OwnedAcres":4.5,"UnownedAcres":0,"Zip":97227,"YearAcquired":1966}},{"type":"Feature","geometry":{"type":"Point","coordinates":[-122.693662,45.480463]},"properties":{"Address":"1805 SW DeWitt St","SubArea":"SW","Property":"DeWitt Park","PropertyID":38,"OwnedAcres":1.13,"UnownedAcres":0,"Zip":97239,"YearAcquired":1960}},{"type":"Feature","geometry":{"type":"Point","coordinates":[-122.73501,45.449334]},"properties":{"Address":"SW 55th Ave & Alfred Ct","SubArea":"SW","Property":"Dickinson Park","PropertyID":39,"OwnedAcres":18.7,"UnownedAcres":0,"Zip":97219,"YearAcquired":1993}},{"type":"Feature","geometry":{"type":"Point","coordinates":[-122.684209,45.503693]},"properties":{"Address":"SW 6th Ave & Sheridan St","SubArea":"CC/NW","Property":"Duniway Park","PropertyID":44,"OwnedAcres":14.08,"UnownedAcres":0,"Zip":97201,"YearAcquired":1918}},{"type":"Feature","geometry":{"type":"Point","coordinates":[-122.727219,45.526207]},"properties":{"Address":"4300 NW Cornell Rd","SubArea":"CC/NW","Property":"Adams Community Garden","PropertyID":45,"OwnedAcres":0.59,"UnownedAcres":0,"Zip":97210,"YearAcquired":1976}},{"type":"Feature","geometry":{"type":"Point","coordinates":[-122.713811,45.486017]},"properties":{"Address":"SW Dosch Rd & Mitchell St","SubArea":"SW","Property":"Albert Kelly Park","PropertyID":48,"OwnedAcres":12.08,"UnownedAcres":0,"Zip":97221,"YearAcquired":1956}},{"type":"Feature","geometry":{"type":"Point","coordinates":[-122.644762,45.564473]},"properties":{"Address":"NE 22nd Ave & Killingsworth St","SubArea":"NE","Property":"Alberta Park","PropertyID":49,"OwnedAcres":16.7,"UnownedAcres":0,"Zip":97211,"YearAcquired":1921}},{"type":"Feature","geometry":{"type":"Point","coordinates":[-122.670801,45.522046]},"properties":{"Address":"SW Naito Pkwy & Ankeny St","SubArea":"CC/NW","Property":"Ankeny Plaza","PropertyID":50,"OwnedAcres":1.33,"UnownedAcres":0,"Zip":97204,"YearAcquired":1948}},{"type":"Feature","geometry":{"type":"Point","coordinates":[-122.735508,45.470399]},"properties":{"Address":"SW 58th Ave & Miles St","SubArea":"SW","Property":"April Hill Park","PropertyID":51,"OwnedAcres":9.79,"UnownedAcres":0,"Zip":97219,"YearAcquired":1963}},{"type":"Feature","geometry":{"type":"Point","coordinates":[-122.518391,45.551654]},"properties":{"Address":"NE 141st Ave & Failing St","SubArea":"OE","Property":"Argay Park","PropertyID":53,"OwnedAcres":8.85,"UnownedAcres":0,"Zip":97230,"YearAcquired":1984}},{"type":"Feature","geometry":{"type":"Point","coordinates":[-122.731517,45.448596]},"properties":{"Address":"SW 53rd Ave & Dickinson St","SubArea":"SW","Property":"Ash Creek Natural Area","PropertyID":55,"OwnedAcres":5.15,"UnownedAcres":0,"Zip":97219,"YearAcquired":1997}},{"type":"Feature","geometry":{"type":"Point","coordinates":[-122.624242,45.473155]},"properties":{"Address":"SE Cesar E Chavez Blvd & Bybee Blvd","SubArea":"SE","Property":"Berkeley Park","PropertyID":57,"OwnedAcres":6.45,"UnownedAcres":0,"Zip":97202,"YearAcquired":1941}},{"type":"Feature","geometry":{"type":"Point","coordinates":[-122.571043,45.515227]},"properties":{"Address":"SE 90th Ave & Taylor St","SubArea":"SE","Property":"Berrydale Community Garden","PropertyID":58,"OwnedAcres":0.47,"UnownedAcres":0,"Zip":97216,"YearAcquired":1976}},{"type":"Feature","geometry":{"type":"Point","coordinates":[-122.570539,45.514762]},"properties":{"Address":"SE 92nd Ave & Taylor St","SubArea":"SE","Property":"Berrydale Park","PropertyID":59,"OwnedAcres":6.38,"UnownedAcres":0,"Zip":97216,"YearAcquired":1956}},{"type":"Feature","geometry":{"type":"Point","coordinates":[-122.631339,45.518866]},"properties":{"Address":"SE 33rd Ave & Stark St","SubArea":"SE","Property":"Blair Community Garden","PropertyID":60,"OwnedAcres":0.14,"UnownedAcres":0,"Zip":97214,"YearAcquired":1991}},{"type":"Feature","geometry":{"type":"Point","coordinates":[-122.559518,45.485353]},"properties":{"Address":"SE 100th Ave & Steele St","SubArea":"OE","Property":"Bloomington Park","PropertyID":61,"OwnedAcres":12.95,"UnownedAcres":0,"Zip":97266,"YearAcquired":1940}},{"type":"Feature","geometry":{"type":"Point","coordinates":[-122.600889,45.473629]},"properties":{"Address":"SE 60th Ave & Duke St","SubArea":"SE","Property":"Brentwood Park","PropertyID":63,"OwnedAcres":14.05,"UnownedAcres":0,"Zip":97206,"YearAcquired":1951}},{"type":"Feature","geometry":{"type":"Point","coordinates":[-122.654968,45.498541]},"properties":{"Address":"SE 10th Ave & Haig St","SubArea":"SE","Property":"Brooklyn Park","PropertyID":67,"OwnedAcres":2.37,"UnownedAcres":0,"Zip":97202,"YearAcquired":1949}},{"type":"Feature","geometry":{"type":"Point","coordinates":[-122.650138,45.494641]},"properties":{"Address":"SE 15th Ave & Bush St","SubArea":"SE","Property":"Brooklyn School Park","PropertyID":68,"OwnedAcres":2.94,"UnownedAcres":0,"Zip":97202,"YearAcquired":1979}},{"type":"Feature","geometry":{"type":"Point","coordinates":[-122.648062,45.520086]},"properties":{"Address":"SE 18th Ave & Oak St","SubArea":"SE","Property":"Buckman Community Garden","PropertyID":89,"OwnedAcres":0.15,"UnownedAcres":0,"Zip":97214,"YearAcquired":1980}},{"type":"Feature","geometry":{"type":"Point","coordinates":[-122.651779,45.525623]},"properties":{"Address":"NE 12th Ave & Everett St","SubArea":"NE","Property":"Buckman Field Park","PropertyID":90,"OwnedAcres":11.93,"UnownedAcres":0,"Zip":97232,"YearAcquired":1920}},{"type":"Feature","geometry":{"type":"Point","coordinates":[-122.690962,45.467211]},"properties":{"Address":"SW 12th Ave & Falcon St","SubArea":"SW","Property":"Burlingame Park","PropertyID":92,"OwnedAcres":4.64,"UnownedAcres":0,"Zip":97219,"YearAcquired":1949}},{"type":"Feature","geometry":{"type":"Point","coordinates":[-122.669974,45.469761]},"properties":{"Address":"7720 SW Macadam Ave","SubArea":"SW","Property":"Butterfly Park","PropertyID":93,"OwnedAcres":1.07,"UnownedAcres":0,"Zip":97219,"YearAcquired":1984}},{"type":"Feature","geometry":{"type":"Point","coordinates":[-122.761341,45.587417]},"properties":{"Address":"N Edison St & Pittsburg Ave","SubArea":"N","Property":"Cathedral Park","PropertyID":97,"OwnedAcres":23.09,"UnownedAcres":0,"Zip":97203,"YearAcquired":1968}},{"type":"Feature","geometry":{"type":"Point","coordinates":[-122.677671,45.515392]},"properties":{"Address":"SW 4th Ave & Main St","SubArea":"CC/NW","Property":"Chapman Square","PropertyID":99,"OwnedAcres":0,"UnownedAcres":0,"Zip":97205,"YearAcquired":1869}},{"type":"Feature","geometry":{"type":"Point","coordinates":[-122.550227,45.492654]},"properties":{"Address":"SE 112th Ave & Boise St","SubArea":"OE","Property":"Earl Boyles Park","PropertyID":101,"OwnedAcres":7.85,"UnownedAcres":0,"Zip":97266,"YearAcquired":1986}},{"type":"Feature","geometry":{"type":"Point","coordinates":[-122.667,45.51982]},"properties":{"Address":"SE Water Ave & Hawthorne Blvd","SubArea":"SE","Property":"Eastbank Esplanade","PropertyID":105,"OwnedAcres":0.12,"UnownedAcres":0,"Zip":97214,"YearAcquired":1998}},{"type":"Feature","geometry":{"type":"Point","coordinates":[-122.636925,45.473532]},"properties":{"Address":"2425 SE Bybee Blvd","SubArea":"SE","Property":"Eastmoreland Golf Course","PropertyID":106,"OwnedAcres":139.95,"UnownedAcres":0,"Zip":97202,"YearAcquired":1916}},{"type":"Feature","geometry":{"type":"Point","coordinates":[-122.632603,45.466222]},"properties":{"Address":"SE 30th Ave & Crystal Springs Blvd","SubArea":"SE","Property":"Eastmoreland Playground Park","PropertyID":109,"OwnedAcres":0,"UnownedAcres":0,"Zip":97202,"YearAcquired":1916}},{"type":"Feature","geometry":{"type":"Point","coordinates":[-122.517751,45.464827]},"properties":{"Address":"SE 141st Ave & Crystal Springs St","SubArea":"OE","Property":"Eastridge Park","PropertyID":110,"OwnedAcres":3.52,"UnownedAcres":0,"Zip":97236,"YearAcquired":1981}},{"type":"Feature","geometry":{"type":"Point","coordinates":[-122.648017,45.435931]},"properties":{"Address":"SE 19th Ave & Sparrow St","SubArea":"SE","Property":"Elk Rock Island","PropertyID":113,"OwnedAcres":13.24,"UnownedAcres":0,"Zip":97222,"YearAcquired":1955}},{"type":"Feature","geometry":{"type":"Point","coordinates":[-122.638482,45.524634]},"properties":{"Address":"NE 27th Ave & Everett St","SubArea":"NE","Property":"Everett Community Garden","PropertyID":117,"OwnedAcres":0.39,"UnownedAcres":0,"Zip":97232,"YearAcquired":1988}},{"type":"Feature","geometry":{"type":"Point","coordinates":[-122.728705,45.4884]},"properties":{"Address":"SW 59th Ave & Hamilton St","SubArea":"SW","Property":"Fanno Creek Natural Area","PropertyID":118,"OwnedAcres":7.32,"UnownedAcres":0,"Zip":97221,"YearAcquired":1997}},{"type":"Feature","geometry":{"type":"Point","coordinates":[-122.586103,45.467686]},"properties":{"Address":"SE 75th Ave & Flavel St","SubArea":"SE","Property":"Flavel Park","PropertyID":123,"OwnedAcres":4.17,"UnownedAcres":0,"Zip":97206,"YearAcquired":1953}},{"type":"Feature","geometry":{"type":"Point","coordinates":[-122.552343,45.515873]},"properties":{"Address":"SE 111th Ave & Alder St","SubArea":"OE","Property":"Floyd Light Park","PropertyID":124,"OwnedAcres":7.65,"UnownedAcres":0,"Zip":97216,"YearAcquired":1985}},{"type":"Feature","geometry":{"type":"Point","coordinates":[-122.776112,45.543397]},"properties":{"Address":"2999 NW Miller Rd","SubArea":"CC/NW","Property":"Forest Heights Park","PropertyID":126,"OwnedAcres":2.93,"UnownedAcres":0,"Zip":97229,"YearAcquired":1995}},{"type":"Feature","geometry":{"type":"Point","coordinates":[-122.611457,45.530485]},"properties":{"Address":"NE 52nd Ave & Hassalo St","SubArea":"NE","Property":"Frazer Park","PropertyID":130,"OwnedAcres":3.9,"UnownedAcres":0,"Zip":97213,"YearAcquired":1950}},{"type":"Feature","geometry":{"type":"Point","coordinates":[-122.681724,45.470576]},"properties":{"Address":"SW 3rd Ave & Miles St","SubArea":"SW","Property":"Fulton Community Garden & Display Garden","PropertyID":132,"OwnedAcres":1.77,"UnownedAcres":0,"Zip":97219,"YearAcquired":1974}},{"type":"Feature","geometry":{"type":"Point","coordinates":[-122.680428,45.470564]},"properties":{"Address":"68 SW Miles St","SubArea":"SW","Property":"Fulton Park","PropertyID":133,"OwnedAcres":8.21,"UnownedAcres":0,"Zip":97219,"YearAcquired":1941}},{"type":"Feature","geometry":{"type":"Point","coordinates":[-122.719958,45.470359]},"properties":{"Address":"SW 41st Ave & Canby St","SubArea":"SW","Property":"Gabriel Community Garden & Orchard","PropertyID":135,"OwnedAcres":1.03,"UnownedAcres":0,"Zip":97219,"YearAcquired":1975}},{"type":"Feature","geometry":{"type":"Point","coordinates":[-122.693969,45.575368]},"properties":{"Address":"N Buffalo St & Burrage Ave","SubArea":"N","Property":"Gammans Park","PropertyID":137,"OwnedAcres":1.64,"UnownedAcres":0,"Zip":97217,"YearAcquired":1910}},{"type":"Feature","geometry":{"type":"Point","coordinates":[-122.683398,45.477665]},"properties":{"Address":"SW Terwilliger Blvd & Slavin Rd","SubArea":"SW","Property":"George Himes Park","PropertyID":147,"OwnedAcres":32.36,"UnownedAcres":0,"Zip":97201,"YearAcquired":1903}},{"type":"Feature","geometry":{"type":"Point","coordinates":[-122.739125,45.593662]},"properties":{"Address":"N Burr Ave & Fessenden St","SubArea":"N","Property":"George Park","PropertyID":148,"OwnedAcres":2.02,"UnownedAcres":0,"Zip":97203,"YearAcquired":1971}},{"type":"Feature","geometry":{"type":"Point","coordinates":[-122.531292,45.491867]},"properties":{"Address":"SE 130th Ave & Boise St","SubArea":"OE","Property":"Gilbert Heights Park","PropertyID":149,"OwnedAcres":3.8,"UnownedAcres":0,"Zip":97236,"YearAcquired":1993}},{"type":"Feature","geometry":{"type":"Point","coordinates":[-122.526918,45.478254]},"properties":{"Address":"SE 134th Ave & Foster Rd","SubArea":"OE","Property":"Gilbert Primary Park","PropertyID":150,"OwnedAcres":4.39,"UnownedAcres":0,"Zip":97236,"YearAcquired":1993}},{"type":"Feature","geometry":{"type":"Point","coordinates":[-122.505167,45.523878]},"properties":{"Address":"NE 154th Ave & Couch Ct","SubArea":"OE","Property":"Glenfair Park","PropertyID":152,"OwnedAcres":5.07,"UnownedAcres":0,"Zip":97230,"YearAcquired":1989}},{"type":"Feature","geometry":{"type":"Point","coordinates":[-122.580931,45.543588]},"properties":{"Address":"NE 82nd Ave & Siskiyou St","SubArea":"NE","Property":"Glenhaven Park","PropertyID":153,"OwnedAcres":15.69,"UnownedAcres":0,"Zip":97213,"YearAcquired":1948}},{"type":"Feature","geometry":{"type":"Point","coordinates":[-122.572747,45.473868]},"properties":{"Address":"SE 87th Ave & Claybourne St","SubArea":"SE","Property":"Glenwood Park","PropertyID":154,"OwnedAcres":7.46,"UnownedAcres":0,"Zip":97266,"YearAcquired":1941}},{"type":"Feature","geometry":{"type":"Point","coordinates":[-122.672229,45.516924]},"properties":{"Address":"Naito Pkwy between SW Harrison St & NW Glisan St","SubArea":"CC/NW","Property":"Waterfront Park","PropertyID":156,"OwnedAcres":30.22,"UnownedAcres":0,"Zip":97204,"YearAcquired":1927}},{"type":"Feature","geometry":{"type":"Point","coordinates":[-122.692921,45.507141]},"properties":{"Address":"SW 13th Ave & Davenport St","SubArea":"SW","Property":"Governors Park","PropertyID":166,"OwnedAcres":5.41,"UnownedAcres":0,"Zip":97201,"YearAcquired":1894}},{"type":"Feature","geometry":{"type":"Point","coordinates":[-122.721531,45.491523]},"properties":{"Address":"SW 45th Ave & Hamilton St","SubArea":"SW","Property":"Hamilton Park","PropertyID":170,"OwnedAcres":10.18,"UnownedAcres":0,"Zip":97221,"YearAcquired":1955}},{"type":"Feature","geometry":{"type":"Point","coordinates":[-122.571923,45.536655]},"properties":{"Address":"NE 90th Ave & Tillamook St","SubArea":"NE","Property":"Hancock Park","PropertyID":171,"OwnedAcres":4.25,"UnownedAcres":0,"Zip":97220,"YearAcquired":1941}},{"type":"Feature","geometry":{"type":"Point","coordinates":[-122.593235,45.462542]},"properties":{"Address":"SE 67th Ave & Harney St","SubArea":"SE","Property":"Harney Park","PropertyID":173,"OwnedAcres":7.13,"UnownedAcres":0,"Zip":97206,"YearAcquired":1979}},{"type":"Feature","geometry":{"type":"Point","coordinates":[-122.576345,45.508395]},"properties":{"Address":"SE 84th Ave & Harrison St","SubArea":"SE","Property":"Harrison Park","PropertyID":175,"OwnedAcres":4.63,"UnownedAcres":0,"Zip":97216,"YearAcquired":1946}},{"type":"Feature","geometry":{"type":"Point","coordinates":[-122.698467,45.492822]},"properties":{"Address":"SW Patrick Pl & Council Crest Dr","SubArea":"SW","Property":"Healy Heights Park","PropertyID":178,"OwnedAcres":1.13,"UnownedAcres":0,"Zip":97201,"YearAcquired":1951}},{"type":"Feature","geometry":{"type":"Point","coordinates":[-122.676283,45.495664]},"properties":{"Address":"SW Corbett Ave & Lane St","SubArea":"CC/NW","Property":"Heritage Tree Park","PropertyID":179,"OwnedAcres":0.09,"UnownedAcres":0,"Zip":97201,"YearAcquired":1997}},{"type":"Feature","geometry":{"type":"Point","coordinates":[-122.704015,45.6033]},"properties":{"Address":"3500 N Victory Blvd","SubArea":"N","Property":"Heron Lakes Golf Course","PropertyID":180,"OwnedAcres":340.36,"UnownedAcres":0,"Zip":97217,"YearAcquired":1950}},{"type":"Feature","geometry":{"type":"Point","coordinates":[-122.703986,45.481437]},"properties":{"Address":"SW 27th Ave & Hillsdale Hwy","SubArea":"SW","Property":"Hillsdale Park","PropertyID":183,"OwnedAcres":5.17,"UnownedAcres":0,"Zip":97201,"YearAcquired":1952}},{"type":"Feature","geometry":{"type":"Point","coordinates":[-122.709651,45.527789]},"properties":{"Address":"653 NW Culpepper Terr","SubArea":"CC/NW","Property":"Hillside Community Center","PropertyID":184,"OwnedAcres":0,"UnownedAcres":0,"Zip":97210,"YearAcquired":1974}},{"type":"Feature","geometry":{"type":"Point","coordinates":[-122.709353,45.527531]},"properties":{"Address":"653 NW Culpepper Terr","SubArea":"CC/NW","Property":"Hillside Park","PropertyID":185,"OwnedAcres":3.43,"UnownedAcres":0,"Zip":97210,"YearAcquired":1974}},{"type":"Feature","geometry":{"type":"Point","coordinates":[-122.653555,45.530756]},"properties":{"Address":"NE 11th Ave & Holladay St","SubArea":"CC/NW","Property":"Holladay Park","PropertyID":186,"OwnedAcres":4.34,"UnownedAcres":0,"Zip":97232,"YearAcquired":1870}},{"type":"Feature","geometry":{"type":"Point","coordinates":[-122.681883,45.56176]},"properties":{"Address":"5340 N Interstate Ave","SubArea":"N","Property":"Interstate Firehouse Cultural Center","PropertyID":191,"OwnedAcres":0,"UnownedAcres":0,"Zip":97217,"YearAcquired":1966}},{"type":"Feature","geometry":{"type":"Point","coordinates":[-122.679115,45.512726]},"properties":{"Address":"SW 3rd Ave & Clay St","SubArea":"CC/NW","Property":"Keller Fountain Park","PropertyID":194,"OwnedAcres":0.92,"UnownedAcres":0,"Zip":97204,"YearAcquired":1968}},{"type":"Feature","geometry":{"type":"Point","coordinates":[-122.623736,45.504292]},"properties":{"Address":"SE 37th Ave & Ivon St","SubArea":"SE","Property":"Ivon Community Garden","PropertyID":197,"OwnedAcres":0.19,"UnownedAcres":0,"Zip":97215,"YearAcquired":1978}},{"type":"Feature","geometry":{"type":"Point","coordinates":[-122.707663,45.51873]},"properties":{"Address":"SW Kingston Dr","SubArea":"CC/NW","Property":"Japanese Garden","PropertyID":200,"OwnedAcres":0,"UnownedAcres":0,"Zip":97201,"YearAcquired":1963}},{"type":"Feature","geometry":{"type":"Point","coordinates":[-122.696603,45.454749]},"properties":{"Address":"SW 18th Pl north of Broadleaf Dr","SubArea":"SW","Property":"Jensen Natural Area","PropertyID":201,"OwnedAcres":2.24,"UnownedAcres":0,"Zip":97219,"YearAcquired":1996}},{"type":"Feature","geometry":{"type":"Point","coordinates":[-122.531036,45.539896]},"properties":{"Address":"NE 128th Ave & Brazee St","SubArea":"OE","Property":"John Luby Park","PropertyID":202,"OwnedAcres":10.85,"UnownedAcres":0,"Zip":97230,"YearAcquired":1985}},{"type":"Feature","geometry":{"type":"Point","coordinates":[-122.755505,45.586129]},"properties":{"Address":"N Edison St & John Ave","SubArea":"N","Property":"Johns Community Garden","PropertyID":203,"OwnedAcres":0.99,"UnownedAcres":0,"Zip":97203,"YearAcquired":1974}},{"type":"Feature","geometry":{"type":"Point","coordinates":[-122.642256,45.460603]},"properties":{"Address":"SE 21st Ave & Clatsop St","SubArea":"SE","Property":"Johnson Creek Park","PropertyID":205,"OwnedAcres":4.51,"UnownedAcres":0,"Zip":97202,"YearAcquired":1920}},{"type":"Feature","geometry":{"type":"Point","coordinates":[-122.554992,45.500692]},"properties":{"Address":"SE 103rd Ave & Clinton St","SubArea":"OE","Property":"Kelly Butte Natural Area","PropertyID":210,"OwnedAcres":22.63,"UnownedAcres":0,"Zip":97266,"YearAcquired":1954}},{"type":"Feature","geometry":{"type":"Point","coordinates":[-122.631205,45.491343]},"properties":{"Address":"SE 34th Ave & Holgate Blvd","SubArea":"SE","Property":"Kenilworth Park","PropertyID":213,"OwnedAcres":8.33,"UnownedAcres":0,"Zip":97202,"YearAcquired":1909}},{"type":"Feature","geometry":{"type":"Point","coordinates":[-122.628893,45.564237]},"properties":{"Address":"5736 NE 33rd Ave","SubArea":"NE","Property":"Kennedy Community Garden","PropertyID":214,"OwnedAcres":0.29,"UnownedAcres":0,"Zip":97211,"YearAcquired":1999}},{"type":"Feature","geometry":{"type":"Point","coordinates":[-122.690621,45.583456]},"properties":{"Address":"8417 N Brandon Ave","SubArea":"N","Property":"Kenton Park","PropertyID":215,"OwnedAcres":11.91,"UnownedAcres":0,"Zip":97217,"YearAcquired":1941}},{"type":"Feature","geometry":{"type":"Point","coordinates":[-122.594786,45.493426]},"properties":{"Address":"SE 67th Ave & Center St","SubArea":"SE","Property":"Kern Park","PropertyID":216,"OwnedAcres":1.62,"UnownedAcres":0,"Zip":97206,"YearAcquired":1940}},{"type":"Feature","geometry":{"type":"Point","coordinates":[-122.649401,45.508534]},"properties":{"Address":"SE 16th Ave & Harrison St","SubArea":"SE","Property":"Ladd's Circle & Squares","PropertyID":221,"OwnedAcres":1.56,"UnownedAcres":0,"Zip":97214,"YearAcquired":1981}},{"type":"Feature","geometry":{"type":"Point","coordinates":[-122.597219,45.49013]},"properties":{"Address":"SE 64th St & Foster Rd","SubArea":"SE","Property":"Laurelwood Park","PropertyID":225,"OwnedAcres":0.37,"UnownedAcres":0,"Zip":97206,"YearAcquired":1923}},{"type":"Feature","geometry":{"type":"Point","coordinates":[-122.571405,45.485116]},"properties":{"Address":"SE 88th Ave & Steele St","SubArea":"SE","Property":"Lents Community Garden","PropertyID":231,"OwnedAcres":0.41,"UnownedAcres":0,"Zip":97266,"YearAcquired":1976}},{"type":"Feature","geometry":{"type":"Point","coordinates":[-122.736325,45.437956]},"properties":{"Address":"SW 57th Ave & Haines St","SubArea":"SW","Property":"Lesser Park","PropertyID":236,"OwnedAcres":8.39,"UnownedAcres":0,"Zip":97219,"YearAcquired":1988}},{"type":"Feature","geometry":{"type":"Point","coordinates":[-122.669757,45.540389]},"properties":{"Address":"N Flint Ave & Russell St","SubArea":"CC/NW","Property":"Lillis-Albina Park","PropertyID":238,"OwnedAcres":3.94,"UnownedAcres":0,"Zip":97227,"YearAcquired":1940}},{"type":"Feature","geometry":{"type":"Point","coordinates":[-122.79534,45.596139]},"properties":{"Address":"NW 105th Ave & St Helens Rd","SubArea":"CC/NW","Property":"Linnton Park","PropertyID":240,"OwnedAcres":0,"UnownedAcres":0,"Zip":97231,"YearAcquired":1938}},{"type":"Feature","geometry":{"type":"Point","coordinates":[-122.673656,45.607013]},"properties":{"Address":"N Tomahawk Island Dr","SubArea":"NE","Property":"Lotus Isle Park","PropertyID":241,"OwnedAcres":1.72,"UnownedAcres":0,"Zip":97217,"YearAcquired":1992}},{"type":"Feature","geometry":{"type":"Point","coordinates":[-122.679813,45.509296]},"properties":{"Address":"SW 3rd Ave & Harrison St","SubArea":"CC/NW","Property":"Lovejoy Fountain Park","PropertyID":242,"OwnedAcres":0.75,"UnownedAcres":0,"Zip":97204,"YearAcquired":1963}},{"type":"Feature","geometry":{"type":"Point","coordinates":[-122.677311,45.516058]},"properties":{"Address":"SW 4th Ave & Main St","SubArea":"CC/NW","Property":"Lownsdale Square","PropertyID":243,"OwnedAcres":0,"UnownedAcres":0,"Zip":97205,"YearAcquired":1869}},{"type":"Feature","geometry":{"type":"Point","coordinates":[-122.493232,45.511395]},"properties":{"Address":"SE 165th Ave & Market St","SubArea":"OE","Property":"Lynchview Park","PropertyID":244,"OwnedAcres":7.62,"UnownedAcres":0,"Zip":97233,"YearAcquired":1993}},{"type":"Feature","geometry":{"type":"Point","coordinates":[-122.486524,45.498325]},"properties":{"Address":"SE 170th Ave & Haig St","SubArea":"OE","Property":"Lynchwood Park","PropertyID":245,"OwnedAcres":8.46,"UnownedAcres":0,"Zip":97266,"YearAcquired":1993}},{"type":"Feature","geometry":{"type":"Point","coordinates":[-122.720834,45.529476]},"properties":{"Address":"NW 29th Ave & Upshur St","SubArea":"CC/NW","Property":"Macleay Park","PropertyID":246,"OwnedAcres":0,"UnownedAcres":0,"Zip":97210,"YearAcquired":1897}},{"type":"Feature","geometry":{"type":"Point","coordinates":[-122.693537,45.557479]},"properties":{"Address":"N Greeley Ave & Going Ct","SubArea":"N","Property":"Madrona Park","PropertyID":247,"OwnedAcres":8.85,"UnownedAcres":0,"Zip":97203,"YearAcquired":1921}},{"type":"Feature","geometry":{"type":"Point","coordinates":[-122.663387,45.562534]},"properties":{"Address":"NE Killingsworth St & Mallory St","SubArea":"NE","Property":"Mallory Meadows Park","PropertyID":248,"OwnedAcres":0.15,"UnownedAcres":0,"Zip":97211,"YearAcquired":1998}},{"type":"Feature","geometry":{"type":"Point","coordinates":[-122.704969,45.449038]},"properties":{"Address":"10608 SW 30th Ave","SubArea":"SW","Property":"Maricara Natural Area","PropertyID":249,"OwnedAcres":17.25,"UnownedAcres":0,"Zip":97219,"YearAcquired":1988}},{"type":"Feature","geometry":{"type":"Point","coordinates":[-122.693811,45.497016]},"properties":{"Address":"SW Marquam St & Sam Jackson Park Rd","SubArea":"SW","Property":"Marquam Nature Park","PropertyID":251,"OwnedAcres":178.25,"UnownedAcres":0,"Zip":97201,"YearAcquired":1979}},{"type":"Feature","geometry":{"type":"Point","coordinates":[-122.692436,45.453841]},"properties":{"Address":"SW 18th Place","SubArea":"SW","Property":"Marshall Park","PropertyID":252,"OwnedAcres":25.88,"UnownedAcres":0,"Zip":97219,"YearAcquired":1948}},{"type":"Feature","geometry":{"type":"Point","coordinates":[-122.73299,45.581913]},"properties":{"Address":"N Wall Ave & Princeton St","SubArea":"N","Property":"McKenna Park","PropertyID":259,"OwnedAcres":4.52,"UnownedAcres":0,"Zip":97203,"YearAcquired":1940}},{"type":"Feature","geometry":{"type":"Point","coordinates":[-122.540734,45.538307]},"properties":{"Address":"NE 117th Ave & Thompson St","SubArea":"OE","Property":"Merrifield Park","PropertyID":261,"OwnedAcres":1,"UnownedAcres":0,"Zip":97220,"YearAcquired":1985}},{"type":"Feature","geometry":{"type":"Point","coordinates":[-122.539523,45.516392]},"properties":{"Address":"SE 122nd Ave & Morrison St","SubArea":"OE","Property":"Midland Park","PropertyID":264,"OwnedAcres":1.87,"UnownedAcres":0,"Zip":97233,"YearAcquired":1986}},{"type":"Feature","geometry":{"type":"Point","coordinates":[-122.673231,45.516194]},"properties":{"Address":"SW Naito Pkwy & Taylor St","SubArea":"CC/NW","Property":"Mill Ends Park","PropertyID":265,"OwnedAcres":0,"UnownedAcres":0,"Zip":97204,"YearAcquired":1976}},{"type":"Feature","geometry":{"type":"Point","coordinates":[-122.539661,45.50944]},"properties":{"Address":"SE 117th Ave & Mill Ct","SubArea":"OE","Property":"Mill Park","PropertyID":266,"OwnedAcres":5.75,"UnownedAcres":0,"Zip":97216,"YearAcquired":1986}},{"type":"Feature","geometry":{"type":"Point","coordinates":[-122.588065,45.481512]},"properties":{"Address":"SE 72nd Ave & Harold St","SubArea":"SE","Property":"Mt Scott Park","PropertyID":271,"OwnedAcres":11.22,"UnownedAcres":0,"Zip":97206,"YearAcquired":1922}},{"type":"Feature","geometry":{"type":"Point","coordinates":[-122.710089,45.467955]},"properties":{"Address":"7688 SW Capitol Hwy","SubArea":"SW","Property":"Multnomah Arts Center","PropertyID":292,"OwnedAcres":5.92,"UnownedAcres":0,"Zip":97219,"YearAcquired":1984}},{"type":"Feature","geometry":{"type":"Point","coordinates":[-122.652296,45.56813]},"properties":{"Address":"NE 13th Ave & Holman St","SubArea":"NE","Property":"Holman Park","PropertyID":402,"OwnedAcres":0.13,"UnownedAcres":0,"Zip":97211,"YearAcquired":1974}},{"type":"Feature","geometry":{"type":"Point","coordinates":[-122.678822,45.525174]},"properties":{"Address":"NW Park Ave from Ankeny St to Glisan St","SubArea":"CC/NW","Property":"North Park Blocks","PropertyID":447,"OwnedAcres":3.11,"UnownedAcres":0,"Zip":97209,"YearAcquired":1869}},{"type":"Feature","geometry":{"type":"Point","coordinates":[-122.522945,45.513848]},"properties":{"Address":"SE 135th Ave & Main St","SubArea":"OE","Property":"North Powellhurst Park","PropertyID":449,"OwnedAcres":3.83,"UnownedAcres":0,"Zip":97266,"YearAcquired":1993}},{"type":"Feature","geometry":{"type":"Point","coordinates":[-122.679959,45.521344]},"properties":{"Address":"SW Park Ave & Washington St","SubArea":"CC/NW","Property":"O Bryant Square","PropertyID":488,"OwnedAcres":0.5,"UnownedAcres":0,"Zip":97205,"YearAcquired":1973}},{"type":"Feature","geometry":{"type":"Point","coordinates":[-122.65535,45.476616]},"properties":{"Address":"SE 7th Ave & Sellwood Blvd","SubArea":"SE","Property":"Oaks Bottom Wildlife Refuge","PropertyID":490,"OwnedAcres":141.22,"UnownedAcres":0,"Zip":97202,"YearAcquired":1959}},{"type":"Feature","geometry":{"type":"Point","coordinates":[-122.661518,45.465715]},"properties":{"Address":"455 SE Spokane St","SubArea":"SE","Property":"Oaks Pioneer Church & Park","PropertyID":492,"OwnedAcres":1.41,"UnownedAcres":0,"Zip":97202,"YearAcquired":1958}},{"type":"Feature","geometry":{"type":"Point","coordinates":[-122.635211,45.527891]},"properties":{"Address":"NE 30th Ave & Oregon St","SubArea":"NE","Property":"Oregon Park","PropertyID":495,"OwnedAcres":3.78,"UnownedAcres":0,"Zip":97232,"YearAcquired":1940}},{"type":"Feature","geometry":{"type":"Point","coordinates":[-122.504348,45.5144]},"properties":{"Address":"SE 155th Ave & Main St","SubArea":"OE","Property":"Parklane Park","PropertyID":501,"OwnedAcres":25.02,"UnownedAcres":0,"Zip":97233,"YearAcquired":1993}},{"type":"Feature","geometry":{"type":"Point","coordinates":[-122.681616,45.561546]},"properties":{"Address":"N Interstate Ave & Emerson St","SubArea":"N","Property":"Patton Square Park","PropertyID":502,"OwnedAcres":1.26,"UnownedAcres":0,"Zip":97217,"YearAcquired":1960}},{"type":"Feature","geometry":{"type":"Point","coordinates":[-122.730617,45.589773]},"properties":{"Address":"N Willamette Blvd to Columbia Blvd","SubArea":"N","Property":"Peninsula Crossing Trail","PropertyID":506,"OwnedAcres":1.43,"UnownedAcres":0,"Zip":97203,"YearAcquired":1996}},{"type":"Feature","geometry":{"type":"Point","coordinates":[-122.678922,45.511009]},"properties":{"Address":"SW 1st to 4th Ave - Market to Harrison St","SubArea":"CC/NW","Property":"Pettygrove Park","PropertyID":511,"OwnedAcres":0.8,"UnownedAcres":0,"Zip":97204,"YearAcquired":1966}},{"type":"Feature","geometry":{"type":"Point","coordinates":[-122.638097,45.504078]},"properties":{"Address":"SE 27th Ave & Division St","SubArea":"SE","Property":"Piccolo Park","PropertyID":512,"OwnedAcres":0.57,"UnownedAcres":0,"Zip":97202,"YearAcquired":1989}},{"type":"Feature","geometry":{"type":"Point","coordinates":[-122.679291,45.518877]},"properties":{"Address":"SW Broadway & Yamhill St","SubArea":"CC/NW","Property":"Pioneer Courthouse Square","PropertyID":515,"OwnedAcres":1.55,"UnownedAcres":0,"Zip":97205,"YearAcquired":1979}},{"type":"Feature","geometry":{"type":"Point","coordinates":[-122.695201,45.596466]},"properties":{"Address":"1940 N Victory Blvd","SubArea":"N","Property":"Portland International Raceway","PropertyID":524,"OwnedAcres":291.15,"UnownedAcres":0,"Zip":97217,"YearAcquired":1972}},{"type":"Feature","geometry":{"type":"Point","coordinates":[-122.652729,45.525493]},"properties":{"Address":"324 NE 12th Ave","SubArea":"CC/NW","Property":"Portland Tennis Center","PropertyID":525,"OwnedAcres":0,"UnownedAcres":0,"Zip":97232,"YearAcquired":1973}},{"type":"Feature","geometry":{"type":"Point","coordinates":[-122.724227,45.578873]},"properties":{"Address":"N Stanford Ave & Depauw St","SubArea":"N","Property":"Portsmouth Park","PropertyID":527,"OwnedAcres":4.02,"UnownedAcres":0,"Zip":97203,"YearAcquired":1941}},{"type":"Feature","geometry":{"type":"Point","coordinates":[-122.504874,45.486218]},"properties":{"Address":"16160 SE Powell Blvd","SubArea":"OE","Property":"Powell Butte Nature Park","PropertyID":528,"OwnedAcres":611.98,"UnownedAcres":0,"Zip":97236,"YearAcquired":1925}},{"type":"Feature","geometry":{"type":"Point","coordinates":[-122.665456,45.459728]},"properties":{"Address":"SW Macadam Ave south of the Sellwood Bridge","SubArea":"SW","Property":"Powers Marine Park","PropertyID":531,"OwnedAcres":14.25,"UnownedAcres":0,"Zip":97219,"YearAcquired":1926}},{"type":"Feature","geometry":{"type":"Point","coordinates":[-122.774681,45.459104]},"properties":{"Address":"8200 SW Scholls Ferry Rd","SubArea":"SW","Property":"RedTail Golf Course","PropertyID":562,"OwnedAcres":164.44,"UnownedAcres":0,"Zip":97005,"YearAcquired":1954}},{"type":"Feature","geometry":{"type":"Point","coordinates":[-122.614407,45.504136]},"properties":{"Address":"SE 47th Ave & Ivon St","SubArea":"SE","Property":"Ivon Street Park","PropertyID":565,"OwnedAcres":0.3,"UnownedAcres":0,"Zip":97206,"YearAcquired":1989}},{"type":"Feature","geometry":{"type":"Point","coordinates":[-122.567353,45.546045]},"properties":{"Address":"NE Rocky Butte Rd","SubArea":"NE","Property":"Rocky Butte Natural Area","PropertyID":568,"OwnedAcres":17.28,"UnownedAcres":0,"Zip":97220,"YearAcquired":1988}},{"type":"Feature","geometry":{"type":"Point","coordinates":[-122.589777,45.539564]},"properties":{"Address":"2200 NE 71st Ave","SubArea":"NE","Property":"Rose City Golf Course","PropertyID":570,"OwnedAcres":150.72,"UnownedAcres":0,"Zip":97213,"YearAcquired":1920}},{"type":"Feature","geometry":{"type":"Point","coordinates":[-122.652848,45.561032]},"properties":{"Address":"1236 NE Roselawn St","SubArea":"NE","Property":"Roselawn Park","PropertyID":574,"OwnedAcres":0.12,"UnownedAcres":0,"Zip":97211,"YearAcquired":1996}},{"type":"Feature","geometry":{"type":"Point","coordinates":[-122.593305,45.530965]},"properties":{"Address":"NE 68th Ave & Hassalo St","SubArea":"NE","Property":"Rosemont Bluff Natural Area","PropertyID":575,"OwnedAcres":2.31,"UnownedAcres":0,"Zip":97213,"YearAcquired":1995}},{"type":"Feature","geometry":{"type":"Point","coordinates":[-122.645595,45.554565]},"properties":{"Address":"NE 19th Ave & Skidmore St","SubArea":"NE","Property":"Sabin Community Garden","PropertyID":578,"OwnedAcres":0.1,"UnownedAcres":0,"Zip":97212,"YearAcquired":1995}},{"type":"Feature","geometry":{"type":"Point","coordinates":[-122.585867,45.559468]},"properties":{"Address":"NE 75th & Roselawn St","SubArea":"NE","Property":"Sacajawea Park","PropertyID":580,"OwnedAcres":4.89,"UnownedAcres":0,"Zip":97218,"YearAcquired":1985}},{"type":"Feature","geometry":{"type":"Point","coordinates":[-122.65132,45.464815]},"properties":{"Address":"1436 SE Spokane St","SubArea":"SE","Property":"Sellwood Community Center","PropertyID":663,"OwnedAcres":0.23,"UnownedAcres":0,"Zip":97202,"YearAcquired":1920}},{"type":"Feature","geometry":{"type":"Point","coordinates":[-122.663468,45.466613]},"properties":{"Address":"SE Spokane St & Oaks Pkwy","SubArea":"SE","Property":"Sellwood Riverfront Park","PropertyID":668,"OwnedAcres":7.62,"UnownedAcres":0,"Zip":97202,"YearAcquired":1969}},{"type":"Feature","geometry":{"type":"Point","coordinates":[-122.633137,45.510473]},"properties":{"Address":"SE 31st Ave & Market St","SubArea":"SE","Property":"Sewallcrest Community Garden","PropertyID":669,"OwnedAcres":0.76,"UnownedAcres":0,"Zip":97214,"YearAcquired":1974}},{"type":"Feature","geometry":{"type":"Point","coordinates":[-122.632949,45.509733]},"properties":{"Address":"SE 31st Ave & Market St","SubArea":"SE","Property":"Sewallcrest Park","PropertyID":670,"OwnedAcres":5.09,"UnownedAcres":0,"Zip":97214,"YearAcquired":1940}},{"type":"Feature","geometry":{"type":"Point","coordinates":[-122.717822,45.611935]},"properties":{"Address":"5300 N Marine Drive","SubArea":"N","Property":"Smith & Bybee Wetlands Natural Area","PropertyID":672,"OwnedAcres":205.71,"UnownedAcres":0,"Zip":97203,"YearAcquired":1961}},{"type":"Feature","geometry":{"type":"Point","coordinates":[-122.684503,45.512716]},"properties":{"Address":"SW Park Ave from Salmon St to Jackson St","SubArea":"CC/NW","Property":"South Park Blocks","PropertyID":674,"OwnedAcres":8.76,"UnownedAcres":0,"Zip":97205,"YearAcquired":1869}},{"type":"Feature","geometry":{"type":"Point","coordinates":[-122.710864,45.462636]},"properties":{"Address":"3332 SW Spring Garden St","SubArea":"SW","Property":"Spring Garden Park","PropertyID":678,"OwnedAcres":4.65,"UnownedAcres":0,"Zip":97219,"YearAcquired":1999}},{"type":"Feature","geometry":{"type":"Point","coordinates":[-122.526588,45.473991]},"properties":{"Address":"SE Ivon St to Boring, OR","SubArea":"SE","Property":"Springwater Corridor","PropertyID":679,"OwnedAcres":240.99,"UnownedAcres":0,"Zip":"NA","YearAcquired":1990}},{"type":"Feature","geometry":{"type":"Point","coordinates":[-122.752117,45.592201]},"properties":{"Address":"8427 N Central St","SubArea":"N","Property":"St Johns Community Center","PropertyID":680,"OwnedAcres":0,"UnownedAcres":0,"Zip":97203,"YearAcquired":1948}},{"type":"Feature","geometry":{"type":"Point","coordinates":[-122.752147,45.592784]},"properties":{"Address":"8427 N Central St","SubArea":"N","Property":"St Johns Park","PropertyID":681,"OwnedAcres":5.77,"UnownedAcres":0,"Zip":97203,"YearAcquired":1941}},{"type":"Feature","geometry":{"type":"Point","coordinates":[-122.754737,45.591379]},"properties":{"Address":"7519 N Burlington Ave","SubArea":"N","Property":"St Johns Racquet Center","PropertyID":682,"OwnedAcres":1.25,"UnownedAcres":0,"Zip":97203,"YearAcquired":1977}},{"type":"Feature","geometry":{"type":"Point","coordinates":[-122.693715,45.472011]},"properties":{"Address":"SW Bertha Blvd & Chestnut St","SubArea":"SW","Property":"Stephens Creek Nature Park","PropertyID":711,"OwnedAcres":3.38,"UnownedAcres":0,"Zip":97219,"YearAcquired":1996}},{"type":"Feature","geometry":{"type":"Point","coordinates":[-122.674743,45.560282]},"properties":{"Address":"5134-5138 N Albina St","SubArea":"NE","Property":"Sumner-Albina Park","PropertyID":714,"OwnedAcres":0.08,"UnownedAcres":0,"Zip":97217,"YearAcquired":1998}},{"type":"Feature","geometry":{"type":"Point","coordinates":[-122.62887,45.515327]},"properties":{"Address":"SE 34th Ave & Taylor St","SubArea":"SE","Property":"Sunnyside School Park","PropertyID":715,"OwnedAcres":1.91,"UnownedAcres":0,"Zip":97214,"YearAcquired":2000}},{"type":"Feature","geometry":{"type":"Point","coordinates":[-122.683638,45.491363]},"properties":{"Address":"SW 6th Ave - Sheridan St to Slavin St","SubArea":"SW","Property":"Terwilliger Parkway","PropertyID":793,"OwnedAcres":98.87,"UnownedAcres":0,"Zip":97201,"YearAcquired":1912}},{"type":"Feature","geometry":{"type":"Point","coordinates":[-122.5524,45.468632]},"properties":{"Address":"SE 107th Ave & Henderson St","SubArea":"OE","Property":"PlayHaven Park","PropertyID":812,"OwnedAcres":3.17,"UnownedAcres":0,"Zip":97266,"YearAcquired":2001}},{"type":"Feature","geometry":{"type":"Point","coordinates":[-122.517106,45.539535]},"properties":{"Address":"NE 138th Ave & Thompson St","SubArea":"OE","Property":"Thompson Park","PropertyID":814,"OwnedAcres":4.33,"UnownedAcres":0,"Zip":97230,"YearAcquired":1986}},{"type":"Feature","geometry":{"type":"Point","coordinates":[-122.622582,45.462725]},"properties":{"Address":"SE 37th Ave & Tenino St","SubArea":"SE","Property":"Tideman Johnson Natural Area","PropertyID":815,"OwnedAcres":7.69,"UnownedAcres":0,"Zip":97202,"YearAcquired":1940}},{"type":"Feature","geometry":{"type":"Point","coordinates":[-122.701912,45.587863]},"properties":{"Address":"N Hamlin Ave & Trenton St","SubArea":"N","Property":"Trenton Park","PropertyID":820,"OwnedAcres":2.3,"UnownedAcres":0,"Zip":97217,"YearAcquired":1941}},{"type":"Feature","geometry":{"type":"Point","coordinates":[-122.710043,45.587339]},"properties":{"Address":"9009 N Foss Ave","SubArea":"N","Property":"University Park","PropertyID":824,"OwnedAcres":11.26,"UnownedAcres":0,"Zip":97217,"YearAcquired":1953}},{"type":"Feature","geometry":{"type":"Point","coordinates":[-122.544893,45.519547]},"properties":{"Address":"SE 115th Ave & Stark St","SubArea":"OE","Property":"Ventura Park","PropertyID":832,"OwnedAcres":7.25,"UnownedAcres":0,"Zip":97216,"YearAcquired":1986}},{"type":"Feature","geometry":{"type":"Point","coordinates":[-122.734849,45.480551]},"properties":{"Address":"SW 55th Ave & Iowa St","SubArea":"SW","Property":"Vermont Hills Community Garden","PropertyID":833,"OwnedAcres":0.35,"UnownedAcres":0,"Zip":97221,"YearAcquired":1978}},{"type":"Feature","geometry":{"type":"Point","coordinates":[-122.718431,45.512135]},"properties":{"Address":"4000 SW Canyon Rd","SubArea":"CC/NW","Property":"Vietnam Veterans of Oregon Memorial","PropertyID":835,"OwnedAcres":0,"UnownedAcres":0,"Zip":97210,"YearAcquired":1987}},{"type":"Feature","geometry":{"type":"Point","coordinates":[-122.677283,45.499214]},"properties":{"Address":"SW Water Ave & Gibbs St","SubArea":"SW","Property":"Water & Gibbs Community Garden","PropertyID":844,"OwnedAcres":0.25,"UnownedAcres":0,"Zip":97201,"YearAcquired":1976}},{"type":"Feature","geometry":{"type":"Point","coordinates":[-122.59445,45.553204]},"properties":{"Address":"NE 66th Ave & Mason St","SubArea":"NE","Property":"Wellington Park","PropertyID":846,"OwnedAcres":3.97,"UnownedAcres":0,"Zip":97218,"YearAcquired":1941}},{"type":"Feature","geometry":{"type":"Point","coordinates":[-122.71816,45.443671]},"properties":{"Address":"SW 39th Ave & Pomona St","SubArea":"SW","Property":"West Portland Park Natural Area","PropertyID":849,"OwnedAcres":14.67,"UnownedAcres":0,"Zip":97219,"YearAcquired":1995}},{"type":"Feature","geometry":{"type":"Point","coordinates":[-122.543977,45.502613]},"properties":{"Address":"SE 115th Ave & Division St","SubArea":"OE","Property":"West Powellhurst Park","PropertyID":850,"OwnedAcres":4.06,"UnownedAcres":0,"Zip":97266,"YearAcquired":1986}},{"type":"Feature","geometry":{"type":"Point","coordinates":[-122.610758,45.573653]},"properties":{"Address":"7040 NE 47th Ave","SubArea":"NE","Property":"Whitaker Ponds Natural Area","PropertyID":856,"OwnedAcres":24.75,"UnownedAcres":0,"Zip":97218,"YearAcquired":1998}},{"type":"Feature","geometry":{"type":"Point","coordinates":[-122.504563,45.549951]},"properties":{"Address":"3655 NE 154th Ave","SubArea":"OE","Property":"Wilkes Park","PropertyID":857,"OwnedAcres":1.49,"UnownedAcres":0,"Zip":97230,"YearAcquired":1998}},{"type":"Feature","geometry":{"type":"Point","coordinates":[-122.690714,45.477585]},"properties":{"Address":"1151 SW Vermont St","SubArea":"SW","Property":"Wilson Pool","PropertyID":863,"OwnedAcres":0.47,"UnownedAcres":0,"Zip":97219,"YearAcquired":1957}},{"type":"Feature","geometry":{"type":"Point","coordinates":[-122.653105,45.574156]},"properties":{"Address":"NE 11th Ave & Claremont Ave","SubArea":"NE","Property":"Woodlawn Community Garden","PropertyID":864,"OwnedAcres":0.4,"UnownedAcres":0,"Zip":97211,"YearAcquired":1998}},{"type":"Feature","geometry":{"type":"Point","coordinates":[-122.723899,45.458719]},"properties":{"Address":"SW 45th Ave & Woods St","SubArea":"SW","Property":"Woods Memorial Natural Area","PropertyID":866,"OwnedAcres":36.22,"UnownedAcres":0,"Zip":97219,"YearAcquired":1988}},{"type":"Feature","geometry":{"type":"Point","coordinates":[-122.618794,45.479771]},"properties":{"Address":"5905 SE 43rd Ave","SubArea":"SE","Property":"Woodstock Community Center","PropertyID":867,"OwnedAcres":0.11,"UnownedAcres":0,"Zip":97206,"YearAcquired":1958}},{"type":"Feature","geometry":{"type":"Point","coordinates":[-122.71911,45.585551]},"properties":{"Address":"N Hunt St & Courtenay Ave","SubArea":"N","Property":"Portsmouth Community Garden","PropertyID":884,"OwnedAcres":0.23,"UnownedAcres":0,"Zip":97203,"YearAcquired":2001}},{"type":"Feature","geometry":{"type":"Point","coordinates":[-122.677665,45.556704]},"properties":{"Address":"4619 N Michigan Ave","SubArea":"NE","Property":"Patton Community Garden","PropertyID":885,"OwnedAcres":0.21,"UnownedAcres":0,"Zip":97217,"YearAcquired":2002}},{"type":"Feature","geometry":{"type":"Point","coordinates":[-122.648524,45.520397]},"properties":{"Address":"320 SE 16th Ave","SubArea":"SE","Property":"Buckman Pool","PropertyID":892,"OwnedAcres":0,"UnownedAcres":0,"Zip":97214,"YearAcquired":null}},{"type":"Feature","geometry":{"type":"Point","coordinates":[-122.786209,45.590818]},"properties":{"Address":"NW Germantown Rd","SubArea":"CC/NW","Property":"Clark & Wilson","PropertyID":894,"OwnedAcres":17.23,"UnownedAcres":0,"Zip":97231,"YearAcquired":1927}},{"type":"Feature","geometry":{"type":"Point","coordinates":[-122.721382,45.532112]},"properties":{"Address":"NW Mountain View Park Rd","SubArea":"CC/NW","Property":"Holman Property","PropertyID":897,"OwnedAcres":0,"UnownedAcres":0,"Zip":97210,"YearAcquired":1939}},{"type":"Feature","geometry":{"type":"Point","coordinates":[-122.690884,45.554176]},"properties":{"Address":"2206 N Skidmore St","SubArea":"N","Property":"Mocks Crest Property","PropertyID":906,"OwnedAcres":5.86,"UnownedAcres":0,"Zip":97217,"YearAcquired":1998}},{"type":"Feature","geometry":{"type":"Point","coordinates":[-122.672123,45.507855]},"properties":{"Address":"1814-1816 SW River Pkwy","SubArea":"CC/NW","Property":"South Waterfront Park","PropertyID":916,"OwnedAcres":4.31,"UnownedAcres":0,"Zip":97201,"YearAcquired":1999}},{"type":"Feature","geometry":{"type":"Point","coordinates":[-122.553458,45.518788]},"properties":{"Address":"SE 106th Ave & Stark St","SubArea":"OE","Property":"Stark Street Island Park","PropertyID":917,"OwnedAcres":0.4,"UnownedAcres":0,"Zip":97216,"YearAcquired":1986}},{"type":"Feature","geometry":{"type":"Point","coordinates":[-122.669331,45.468391]},"properties":{"Address":"7720 SW Macadam Ave","SubArea":"SW","Property":"Willamette Moorage","PropertyID":921,"OwnedAcres":16.06,"UnownedAcres":0,"Zip":97219,"YearAcquired":1984}},{"type":"Feature","geometry":{"type":"Point","coordinates":[-122.503209,45.473925]},"properties":{"Address":"SE 152nd Ave & Belmore St","SubArea":"OE","Property":"Clatsop Butte Park","PropertyID":925,"OwnedAcres":43.16,"UnownedAcres":0,"Zip":97236,"YearAcquired":2000}},{"type":"Feature","geometry":{"type":"Point","coordinates":[-122.659025,45.552661]},"properties":{"Address":"NE 7th Ave between Shaver St & Mason St","SubArea":"NE","Property":"Two Plum Park","PropertyID":1010,"OwnedAcres":0.34,"UnownedAcres":0,"Zip":97212,"YearAcquired":1996}},{"type":"Feature","geometry":{"type":"Point","coordinates":[-122.717919,45.508489]},"properties":{"Address":"4015 SW Canyon Rd","SubArea":"CC/NW","Property":"Portland Children's Museum","PropertyID":1016,"OwnedAcres":0,"UnownedAcres":0,"Zip":97221,"YearAcquired":1997}},{"type":"Feature","geometry":{"type":"Point","coordinates":[-122.708697,45.57958]},"properties":{"Address":"7701 N Chautauqua Blvd","SubArea":"N","Property":"Columbia Pool","PropertyID":1106,"OwnedAcres":0,"UnownedAcres":0,"Zip":97203,"YearAcquired":1949}},{"type":"Feature","geometry":{"type":"Point","coordinates":[-122.616346,45.496557]},"properties":{"Address":"SE 44th Ave & Powell Blvd","SubArea":"SE","Property":"Creston Pool","PropertyID":1107,"OwnedAcres":0,"UnownedAcres":0,"Zip":null,"YearAcquired":null}},{"type":"Feature","geometry":{"type":"Point","coordinates":[-122.529206,45.530998]},"properties":{"Address":"12999 NE Holladay St","SubArea":"OE","Property":"East Holladay Park","PropertyID":1109,"OwnedAcres":5.59,"UnownedAcres":0,"Zip":97230,"YearAcquired":1993}},{"type":"Feature","geometry":{"type":"Point","coordinates":[-122.606026,45.530897]},"properties":{"Address":"NE 57th Ave & Hassalo St","SubArea":"NE","Property":"Normandale Park - Erv Lind Stadium","PropertyID":1110,"OwnedAcres":0,"UnownedAcres":0,"Zip":97213,"YearAcquired":null}},{"type":"Feature","geometry":{"type":"Point","coordinates":[-122.639641,45.466476]},"properties":{"Address":"SE McLoughlin Blvd & Nehalem St","SubArea":"SE","Property":"Westmoreland Park - Sckavone Stadium","PropertyID":1111,"OwnedAcres":0,"UnownedAcres":0,"Zip":97202,"YearAcquired":null}},{"type":"Feature","geometry":{"type":"Point","coordinates":[-122.628733,45.53985]},"properties":{"Address":"NE 33rd Ave & US Grant Pl","SubArea":"NE","Property":"Grant Pool","PropertyID":1112,"OwnedAcres":0,"UnownedAcres":0,"Zip":97212,"YearAcquired":null}},{"type":"Feature","geometry":{"type":"Point","coordinates":[-122.624608,45.519894]},"properties":{"Address":"3756 SE Oak St","SubArea":"SE","Property":"Laurelhurst Dance Studio","PropertyID":1114,"OwnedAcres":0,"UnownedAcres":0,"Zip":97214,"YearAcquired":1947}},{"type":"Feature","geometry":{"type":"Point","coordinates":[-122.679401,45.599843]},"properties":{"Address":"10737 N Union Ct","SubArea":"N","Property":"Delta Park - Owens Sports Complex","PropertyID":1123,"OwnedAcres":0,"UnownedAcres":0,"Zip":97217,"YearAcquired":1997}},{"type":"Feature","geometry":{"type":"Point","coordinates":[-122.673587,45.569665]},"properties":{"Address":"700 N Rosa Parks Way","SubArea":"N","Property":"Peninsula Park Community Center & Pool","PropertyID":1124,"OwnedAcres":0,"UnownedAcres":0,"Zip":97217,"YearAcquired":1913}},{"type":"Feature","geometry":{"type":"Point","coordinates":[-122.754952,45.599145]},"properties":{"Address":"N Seneca St & St Johns Ave","SubArea":"N","Property":"Pier Pool","PropertyID":1126,"OwnedAcres":0,"UnownedAcres":0,"Zip":97203,"YearAcquired":1940}},{"type":"Feature","geometry":{"type":"Point","coordinates":[-122.717618,45.524189]},"properties":{"Address":"3229 NW Pittock Dr","SubArea":"NW","Property":"Pittock Mansion Acres","PropertyID":1128,"OwnedAcres":54.21,"UnownedAcres":0,"Zip":97210,"YearAcquired":1964}},{"type":"Feature","geometry":{"type":"Point","coordinates":[-122.659433,45.466412]},"properties":{"Address":"7951 SE 7th Ave","SubArea":"SE","Property":"Sellwood Pool","PropertyID":1130,"OwnedAcres":0,"UnownedAcres":0,"Zip":97202,"YearAcquired":1929}},{"type":"Feature","geometry":{"type":"Point","coordinates":[-122.570099,45.488713]},"properties":{"Address":"SE 92nd Ave & Holgate Blvd","SubArea":"OE","Property":"Lents Park - Walker Stadium","PropertyID":1135,"OwnedAcres":0,"UnownedAcres":0,"Zip":97266,"YearAcquired":1912}},{"type":"Feature","geometry":{"type":"Point","coordinates":[-122.681835,45.529034]},"properties":{"Address":"810 NW 11th Ave","SubArea":"CC/NW","Property":"Jamison Square","PropertyID":1140,"OwnedAcres":0.94,"UnownedAcres":0,"Zip":97209,"YearAcquired":2000}},{"type":"Feature","geometry":{"type":"Point","coordinates":[-122.69922,45.455695]},"properties":{"Address":"9520 SW Lancaster Rd","SubArea":"SW","Property":"Foley-Balmer Natural Area","PropertyID":1198,"OwnedAcres":9.58,"UnownedAcres":0,"Zip":97219,"YearAcquired":1996}},{"type":"Feature","geometry":{"type":"Point","coordinates":[-122.731776,45.443193]},"properties":{"Address":"SW 53rd Ave & Coronado St","SubArea":"SW","Property":"Sylvania Park","PropertyID":1200,"OwnedAcres":2.7,"UnownedAcres":0,"Zip":97219,"YearAcquired":2002}},{"type":"Feature","geometry":{"type":"Point","coordinates":[-122.555593,45.495204]},"properties":{"Address":"SE 104th Ave & Powell Blvd","SubArea":"OE","Property":"Portland Memory Garden","PropertyID":1202,"OwnedAcres":0,"UnownedAcres":0,"Zip":97266,"YearAcquired":null}},{"type":"Feature","geometry":{"type":"Point","coordinates":[-122.669632,45.547993]},"properties":{"Address":"318 N Fremont St","SubArea":"N","Property":"Boise-Eliot Community Garden","PropertyID":1205,"OwnedAcres":0.25,"UnownedAcres":0,"Zip":97227,"YearAcquired":1990}},{"type":"Feature","geometry":{"type":"Point","coordinates":[-122.604414,45.472725]},"properties":{"Address":"SE 57th Ave & Cooper St","SubArea":"SE","Property":"Brentwood Community Garden","PropertyID":1216,"OwnedAcres":0,"UnownedAcres":0,"Zip":97206,"YearAcquired":1996}},{"type":"Feature","geometry":{"type":"Point","coordinates":[-122.678278,45.497723]},"properties":{"Address":"SW Naito Pkwy & Curry St","SubArea":"SW","Property":"Front & Curry Community Garden","PropertyID":1217,"OwnedAcres":0.23,"UnownedAcres":0,"Zip":97201,"YearAcquired":1952}},{"type":"Feature","geometry":{"type":"Point","coordinates":[-122.685676,45.556549]},"properties":{"Address":"N Campbell Ave & Going Ct","SubArea":"N","Property":"Beach Community Garden","PropertyID":1218,"OwnedAcres":0.41,"UnownedAcres":0,"Zip":97217,"YearAcquired":2003}},{"type":"Feature","geometry":{"type":"Point","coordinates":[-122.690039,45.4456]},"properties":{"Address":"SW 11th Dr & Arnold St","SubArea":"SW","Property":"Arnold Creek Natural Area","PropertyID":1221,"OwnedAcres":0.48,"UnownedAcres":0,"Zip":97219,"YearAcquired":1995}},{"type":"Feature","geometry":{"type":"Point","coordinates":[-122.546734,45.554973]},"properties":{"Address":"11206 NE Prescott St","SubArea":"OE","Property":"Senn's Dairy Park","PropertyID":1224,"OwnedAcres":1.08,"UnownedAcres":0,"Zip":97220,"YearAcquired":2000}},{"type":"Feature","geometry":{"type":"Point","coordinates":[-122.643381,45.462397]},"properties":{"Address":"SE 21st Ave & Harney St","SubArea":"SE","Property":"Sellwood Community Garden","PropertyID":1230,"OwnedAcres":0.23,"UnownedAcres":0,"Zip":97202,"YearAcquired":2004}},{"type":"Feature","geometry":{"type":"Point","coordinates":[-122.748976,45.60036]},"properties":{"Address":"N Iris Way & Barr Ave","SubArea":"N","Property":"Pier Community Garden","PropertyID":1236,"OwnedAcres":0.98,"UnownedAcres":0,"Zip":97203,"YearAcquired":2004}},{"type":"Feature","geometry":{"type":"Point","coordinates":[-122.607832,45.465486]},"properties":{"Address":"5416 SE Flavel Dr","SubArea":"SE","Property":"Hazeltine Park","PropertyID":1237,"OwnedAcres":1.02,"UnownedAcres":0,"Zip":97206,"YearAcquired":2001}},{"type":"Feature","geometry":{"type":"Point","coordinates":[-122.726293,45.447183]},"properties":{"Address":"10819 SW Capitol Hwy","SubArea":"SW","Property":"Holly Farm Park","PropertyID":1239,"OwnedAcres":1.72,"UnownedAcres":0,"Zip":97219,"YearAcquired":2003}},{"type":"Feature","geometry":{"type":"Point","coordinates":[-122.636076,45.474039]},"properties":{"Address":"2425 SE Bybee Blvd","SubArea":"SE","Property":"Eastmoreland Garden","PropertyID":1255,"OwnedAcres":0.41,"UnownedAcres":0,"Zip":null,"YearAcquired":2004}},{"type":"Feature","geometry":{"type":"Point","coordinates":[-122.609204,45.555728]},"properties":{"Address":"5401 NE Prescott St","SubArea":"NE","Property":"Rigler Community Garden","PropertyID":1261,"OwnedAcres":0.3,"UnownedAcres":0,"Zip":97218,"YearAcquired":2004}},{"type":"Feature","geometry":{"type":"Point","coordinates":[-122.716319,45.590283]},"properties":{"Address":"N Newman Ave & Fessenden St","SubArea":"N","Property":"McCoy Community Garden","PropertyID":1262,"OwnedAcres":0.25,"UnownedAcres":0,"Zip":97203,"YearAcquired":2004}},{"type":"Feature","geometry":{"type":"Point","coordinates":[-122.681914,45.531166]},"properties":{"Address":"NW 10th Ave & Marshall St","SubArea":"CC/NW","Property":"Tanner Springs Park","PropertyID":1273,"OwnedAcres":0.92,"UnownedAcres":0,"Zip":97209,"YearAcquired":2003}},{"type":"Feature","geometry":{"type":"Point","coordinates":[-122.534693,45.479455]},"properties":{"Address":"12500 SE Ramona St","SubArea":"SE","Property":"Alice Ott SUN Community School","PropertyID":1275,"OwnedAcres":0,"UnownedAcres":0,"Zip":97236,"YearAcquired":null}},{"type":"Feature","geometry":{"type":"Point","coordinates":[-122.596282,45.486027]},"properties":{"Address":"5109 SE 66th Ave","SubArea":"SE","Property":"Arleta SUN Community School","PropertyID":1276,"OwnedAcres":0,"UnownedAcres":0,"Zip":97206,"YearAcquired":null}},{"type":"Feature","geometry":{"type":"Point","coordinates":[-122.620918,45.548876]},"properties":{"Address":"4043 NE Fremont St","SubArea":"NE","Property":"Beaumont SUN Community School","PropertyID":1277,"OwnedAcres":0,"UnownedAcres":0,"Zip":97212,"YearAcquired":null}},{"type":"Feature","geometry":{"type":"Point","coordinates":[-122.479217,45.501737]},"properties":{"Address":"17650 SE Brooklyn St","SubArea":"SE","Property":"Centennial SUN Community School","PropertyID":1278,"OwnedAcres":0,"UnownedAcres":0,"Zip":97236,"YearAcquired":null}},{"type":"Feature","geometry":{"type":"Point","coordinates":[-122.63493,45.571086]},"properties":{"Address":"3039 NE Rosa Parks Way","SubArea":"NE","Property":"Faubion SUN Community School","PropertyID":1280,"OwnedAcres":0,"UnownedAcres":0,"Zip":97211,"YearAcquired":null}},{"type":"Feature","geometry":{"type":"Point","coordinates":[-122.587435,45.54411]},"properties":{"Address":"7334 NE Siskiyou St","SubArea":"NE","Property":"Roseway Heights SUN Community School","PropertyID":1281,"OwnedAcres":0,"UnownedAcres":0,"Zip":97213,"YearAcquired":null}},{"type":"Feature","geometry":{"type":"Point","coordinates":[-122.633185,45.490995]},"properties":{"Address":"3119 SE Holgate Blvd","SubArea":"SE","Property":"Grout SUN Community School","PropertyID":1282,"OwnedAcres":0,"UnownedAcres":0,"Zip":97202,"YearAcquired":null}},{"type":"Feature","geometry":{"type":"Point","coordinates":[-122.601533,45.471341]},"properties":{"Address":"7200 SE 60th Ave","SubArea":"SE","Property":"Lane SUN Community School","PropertyID":1283,"OwnedAcres":0,"UnownedAcres":0,"Zip":97206,"YearAcquired":null}},{"type":"Feature","geometry":{"type":"Point","coordinates":[-122.60406,45.521044]},"properties":{"Address":"5800 SE Ash St","SubArea":"SE","Property":"Mt Tabor SUN Community School","PropertyID":1285,"OwnedAcres":0,"UnownedAcres":0,"Zip":97215,"YearAcquired":null}},{"type":"Feature","geometry":{"type":"Point","coordinates":[-122.539827,45.552747]},"properties":{"Address":"12003 NE Shaver St","SubArea":"NE","Property":"Parkrose SUN Community School","PropertyID":1286,"OwnedAcres":0,"UnownedAcres":0,"Zip":97220,"YearAcquired":null}},{"type":"Feature","geometry":{"type":"Point","coordinates":[-122.56588,45.546437]},"properties":{"Address":"NE Rocky Butte Rd","SubArea":"NE","Property":"Joseph Wood Hill Park","PropertyID":1291,"OwnedAcres":2.38,"UnownedAcres":0,"Zip":97220,"YearAcquired":1988}},{"type":"Feature","geometry":{"type":"Point","coordinates":[-122.551358,45.493224]},"properties":{"Address":"SE 110th Ave & Francis St","SubArea":"OE","Property":"Boyles Community Garden","PropertyID":1325,"OwnedAcres":0.28,"UnownedAcres":0,"Zip":97266,"YearAcquired":2007}},{"type":"Feature","geometry":{"type":"Point","coordinates":[-122.546585,45.554699]},"properties":{"Address":"NE 112th Ave & Prescott St","SubArea":"OE","Property":"Senn's Community Garden","PropertyID":1326,"OwnedAcres":0.39,"UnownedAcres":0,"Zip":97220,"YearAcquired":2007}},{"type":"Feature","geometry":{"type":"Point","coordinates":[-122.679832,45.506849]},"properties":{"Address":"SW 1st St & Lincoln St","SubArea":"CC/NW","Property":"Portland Center Park","PropertyID":1327,"OwnedAcres":0.34,"UnownedAcres":0,"Zip":97201,"YearAcquired":1963}},{"type":"Feature","geometry":{"type":"Point","coordinates":[-122.75837,45.59993]},"properties":{"Address":"9930 N Smith St","SubArea":"N","Property":"Sitton SUN Community School","PropertyID":1329,"OwnedAcres":0,"UnownedAcres":0,"Zip":97203,"YearAcquired":null}},{"type":"Feature","geometry":{"type":"Point","coordinates":[-122.703755,45.522314]},"properties":{"Address":"SW Washington Way & Wright Ave","SubArea":"SW","Property":"Oregon Holocaust Memorial","PropertyID":1330,"OwnedAcres":0,"UnownedAcres":0,"Zip":97204,"YearAcquired":null}},{"type":"Feature","geometry":{"type":"Point","coordinates":[-122.665382,45.491997]},"properties":{"Address":"Island","SubArea":"SE","Property":"Ross Island Natural Area","PropertyID":1332,"OwnedAcres":44.83,"UnownedAcres":0,"Zip":null,"YearAcquired":2008}},{"type":"Feature","geometry":{"type":"Point","coordinates":[-122.681402,45.518678]},"properties":{"Address":"815 SW Park Ave","SubArea":"CC/NW","Property":"Director Park","PropertyID":1335,"OwnedAcres":0.46,"UnownedAcres":0,"Zip":97205,"YearAcquired":2009}},{"type":"Feature","geometry":{"type":"Point","coordinates":[-122.543268,45.530812]},"properties":{"Address":"NE 117th Ave & Holladay St","SubArea":"OE","Property":"Hazelwood Community Garden","PropertyID":1336,"OwnedAcres":0.34,"UnownedAcres":0,"Zip":97220,"YearAcquired":2008}},{"type":"Feature","geometry":{"type":"Point","coordinates":[-122.532108,45.512342]},"properties":{"Address":"12727 SE Market St","SubArea":"OE","Property":"Peace Community Garden","PropertyID":1337,"OwnedAcres":0.2,"UnownedAcres":0,"Zip":null,"YearAcquired":2008}},{"type":"Feature","geometry":{"type":"Point","coordinates":[-122.579701,45.541656]},"properties":{"Address":"2735 NE 82nd Ave","SubArea":"NE","Property":"Madison Community Garden","PropertyID":1372,"OwnedAcres":0.25,"UnownedAcres":0,"Zip":97220,"YearAcquired":2010}},{"type":"Feature","geometry":{"type":"Point","coordinates":[-122.580771,45.524882]},"properties":{"Address":"NE 81st Ave & Everett St","SubArea":"SE","Property":"Vestal Community Garden","PropertyID":1383,"OwnedAcres":0.36,"UnownedAcres":0,"Zip":97215,"YearAcquired":2010}},{"type":"Feature","geometry":{"type":"Point","coordinates":[-122.671354,45.497141]},"properties":{"Address":"3508 SW Moody Ave","SubArea":"SW","Property":"Caruthers Park","PropertyID":1385,"OwnedAcres":2.12,"UnownedAcres":0,"Zip":97239,"YearAcquired":2009}},{"type":"Feature","geometry":{"type":"Point","coordinates":[-122.530438,45.492003]},"properties":{"Address":"SE 130th Ave & Boise St","SubArea":"OE","Property":"Gilbert Heights Community Garden","PropertyID":1396,"OwnedAcres":0.44,"UnownedAcres":0,"Zip":97236,"YearAcquired":2010}},{"type":"Feature","geometry":{"type":"Point","coordinates":[-122.542082,45.481097]},"properties":{"Address":"SE 117th Ave & Reedway St","SubArea":"OE","Property":"Furey Community Garden","PropertyID":1410,"OwnedAcres":0.44,"UnownedAcres":0,"Zip":97266,"YearAcquired":2011}},{"type":"Feature","geometry":{"type":"Point","coordinates":[-122.554896,45.495165]},"properties":{"Address":"SE 104th Ave & Bush St","SubArea":"OE","Property":"Ed Benedict Community Garden","PropertyID":1418,"OwnedAcres":0.23,"UnownedAcres":0,"Zip":97266,"YearAcquired":2011}},{"type":"Feature","geometry":{"type":"Point","coordinates":[-122.613652,45.465001]},"properties":{"Address":"4841 SE Tenino Dr","SubArea":"SE","Property":"Errol Heights Community Garden","PropertyID":1419,"OwnedAcres":0.37,"UnownedAcres":0,"Zip":97206,"YearAcquired":2011}},{"type":"Feature","geometry":{"type":"Point","coordinates":[-122.611224,45.530417]},"properties":{"Address":"NE 52nd Ave & Pacific St","SubArea":"NE","Property":"Frazer Community Garden","PropertyID":1420,"OwnedAcres":0.23,"UnownedAcres":0,"Zip":97213,"YearAcquired":2011}},{"type":"Feature","geometry":{"type":"Point","coordinates":[-122.615431,45.559691]},"properties":{"Address":"NE 47th Ave & Sumner St","SubArea":"NE","Property":"Sumner Street Community Garden","PropertyID":1423,"OwnedAcres":0.35,"UnownedAcres":0,"Zip":97218,"YearAcquired":2011}},{"type":"Feature","geometry":{"type":"Point","coordinates":[-122.723485,45.58986]},"properties":{"Address":"N Newark St & Van Houten Ave","SubArea":"N","Property":"Clarendon Community Garden","PropertyID":1425,"OwnedAcres":0.14,"UnownedAcres":0,"Zip":97203,"YearAcquired":2011}},{"type":"Feature","geometry":{"type":"Point","coordinates":[-122.695452,45.587343]},"properties":{"Address":"N Houghton St & Burrage St","SubArea":"N","Property":"Kenton Community Garden","PropertyID":1430,"OwnedAcres":0.38,"UnownedAcres":0,"Zip":97217,"YearAcquired":2011}},{"type":"Feature","geometry":{"type":"Point","coordinates":[-122.626279,45.539711]},"properties":{"Address":"2245 NE 36th Ave","SubArea":"NE","Property":"Grant Community Garden","PropertyID":1439,"OwnedAcres":0.16,"UnownedAcres":0,"Zip":97212,"YearAcquired":2011}},{"type":"Feature","geometry":{"type":"Point","coordinates":[0,0]},"properties":{"Address":"3839 N Melrose Dr","SubArea":"N","Property":"Overlook House","PropertyID":1441,"OwnedAcres":0,"UnownedAcres":0,"Zip":97227,"YearAcquired":1955}},{"type":"Feature","geometry":{"type":"Point","coordinates":[-122.711147,45.578976]},"properties":{"Address":"N Lombard St & Woolsey Ave","SubArea":"N","Property":"Columbia Park","PropertyID":17,"OwnedAcres":35.37,"UnownedAcres":0,"Zip":97203,"YearAcquired":1891}},{"type":"Feature","geometry":{"type":"Point","coordinates":[-122.719804,45.473031]},"properties":{"Address":"SW 45th Ave & Vermont St","SubArea":"SW","Property":"Gabriel Park","PropertyID":136,"OwnedAcres":90.65,"UnownedAcres":0,"Zip":97219,"YearAcquired":1950}},{"type":"Feature","geometry":{"type":"Point","coordinates":[-122.616553,45.496292]},"properties":{"Address":"SE 44th Ave & Powell Blvd","SubArea":"SE","Property":"Creston Park","PropertyID":25,"OwnedAcres":14.41,"UnownedAcres":0,"Zip":97206,"YearAcquired":1920}},{"type":"Feature","geometry":{"type":"Point","coordinates":[-122.570483,45.487348]},"properties":{"Address":"SE 92nd Ave & Holgate Blvd","SubArea":"OE","Property":"Lents Park","PropertyID":234,"OwnedAcres":38.14,"UnownedAcres":0,"Zip":97266,"YearAcquired":1914}},{"type":"Feature","geometry":{"type":"Point","coordinates":[-122.626157,45.521077]},"properties":{"Address":"SE Cesar E Chavez Blvd & Stark St","SubArea":"SE","Property":"Laurelhurst Park","PropertyID":224,"OwnedAcres":31.13,"UnownedAcres":0,"Zip":97214,"YearAcquired":1909}},{"type":"Feature","geometry":{"type":"Point","coordinates":[-122.678945,45.470966]},"properties":{"Address":"68 SW Miles St","SubArea":"SW","Property":"Fulton Park Community Center","PropertyID":134,"OwnedAcres":0,"UnownedAcres":0,"Zip":97219,"YearAcquired":1941}},{"type":"Feature","geometry":{"type":"Point","coordinates":[-122.72204,45.475823]},"properties":{"Address":"6820 SW 45th Ave","SubArea":"SW","Property":"Southwest Community Center & Pool","PropertyID":1132,"OwnedAcres":0,"UnownedAcres":0,"Zip":97219,"YearAcquired":1999}},{"type":"Feature","geometry":{"type":"Point","coordinates":[-122.588589,45.482337]},"properties":{"Address":"5530 SE 72nd Ave","SubArea":"SE","Property":"Mt Scott Community Center & Pool","PropertyID":1120,"OwnedAcres":0,"UnownedAcres":0,"Zip":97206,"YearAcquired":1949}},{"type":"Feature","geometry":{"type":"Point","coordinates":[-122.641598,45.497828]},"properties":{"Address":"SE 26th Ave & Powell Blvd","SubArea":"SE","Property":"Powell Park","PropertyID":530,"OwnedAcres":8.08,"UnownedAcres":0,"Zip":97202,"YearAcquired":1921}},{"type":"Feature","geometry":{"type":"Point","coordinates":[-122.669976,45.474634]},"properties":{"Address":"SW Macadam Ave & Nebraska St","SubArea":"SW","Property":"Willamette Park","PropertyID":861,"OwnedAcres":26.49,"UnownedAcres":0,"Zip":97219,"YearAcquired":1929}},{"type":"Feature","geometry":{"type":"Point","coordinates":[-122.682802,45.54852]},"properties":{"Address":"N Fremont St & Interstate Ave","SubArea":"N","Property":"Overlook Park","PropertyID":497,"OwnedAcres":10.93,"UnownedAcres":0,"Zip":97227,"YearAcquired":1930}},{"type":"Feature","geometry":{"type":"Point","coordinates":[-122.755599,45.602589]},"properties":{"Address":"N Lombard St & Bruce Ave","SubArea":"N","Property":"Pier Park","PropertyID":513,"OwnedAcres":87.43,"UnownedAcres":0,"Zip":97203,"YearAcquired":1920}},{"type":"Feature","geometry":{"type":"Point","coordinates":[-122.703871,45.533258]},"properties":{"Address":"NW 25th Ave & Raleigh St","SubArea":"CC/NW","Property":"Wallace Park","PropertyID":839,"OwnedAcres":5.39,"UnownedAcres":0,"Zip":97210,"YearAcquired":1920}},{"type":"Feature","geometry":{"type":"Point","coordinates":[-122.628111,45.552917]},"properties":{"Address":"NE 33rd Ave & Skidmore St","SubArea":"NE","Property":"Wilshire Park","PropertyID":862,"OwnedAcres":14.4,"UnownedAcres":0,"Zip":97211,"YearAcquired":1940}},{"type":"Feature","geometry":{"type":"Point","coordinates":[-122.612628,45.483653]},"properties":{"Address":"SE 47th Ave & Steele St","SubArea":"SE","Property":"Woodstock Park","PropertyID":868,"OwnedAcres":14.11,"UnownedAcres":0,"Zip":97206,"YearAcquired":1921}},{"type":"Feature","geometry":{"type":"Point","coordinates":[-122.67359,45.568158]},"properties":{"Address":"700 N Rosa Parks Way","SubArea":"N","Property":"Peninsula Park","PropertyID":507,"OwnedAcres":16.27,"UnownedAcres":0,"Zip":97217,"YearAcquired":1909}},{"type":"Feature","geometry":{"type":"Point","coordinates":[-122.598361,45.538357]},"properties":{"Address":"NE 62nd Ave & Tillamook St","SubArea":"NE","Property":"Rose City Park","PropertyID":573,"OwnedAcres":0,"UnownedAcres":0,"Zip":97213,"YearAcquired":1920}},{"type":"Feature","geometry":{"type":"Point","coordinates":[-122.707115,45.516287]},"properties":{"Address":"Head of SW Park Place","SubArea":"CC/NW","Property":"Washington Park","PropertyID":841,"OwnedAcres":159.7,"UnownedAcres":0,"Zip":97210,"YearAcquired":1871}},{"type":"Feature","geometry":{"type":"Point","coordinates":[-122.640808,45.469723]},"properties":{"Address":"SE McLoughlin Blvd & Bybee Blvd","SubArea":"SE","Property":"Westmoreland Park","PropertyID":852,"OwnedAcres":42.01,"UnownedAcres":0,"Zip":97202,"YearAcquired":1927}},{"type":"Feature","geometry":{"type":"Point","coordinates":[-122.558062,45.49522]},"properties":{"Address":"SE 100th Ave & Powell Blvd","SubArea":"OE","Property":"Ed Benedict Park","PropertyID":112,"OwnedAcres":12.75,"UnownedAcres":0,"Zip":97266,"YearAcquired":1988}},{"type":"Feature","geometry":{"type":"Point","coordinates":[-122.606203,45.531807]},"properties":{"Address":"NE 57th Ave & Halsey St","SubArea":"NE","Property":"Normandale Park","PropertyID":444,"OwnedAcres":14.39,"UnownedAcres":0,"Zip":97213,"YearAcquired":1940}},{"type":"Feature","geometry":{"type":"Point","coordinates":[-122.653579,45.572825]},"properties":{"Address":"NE 13th Ave & Dekum St","SubArea":"NE","Property":"Woodlawn Park","PropertyID":865,"OwnedAcres":7.58,"UnownedAcres":0,"Zip":97211,"YearAcquired":1975}},{"type":"Feature","geometry":{"type":"Point","coordinates":[-122.700453,45.470594]},"properties":{"Address":"SW 21st Ave & Capitol Hill Rd","SubArea":"SW","Property":"Custer Park","PropertyID":31,"OwnedAcres":6.49,"UnownedAcres":0,"Zip":97219,"YearAcquired":1954}},{"type":"Feature","geometry":{"type":"Point","coordinates":[-122.628899,45.539725]},"properties":{"Address":"NE 33rd Ave & US Grant Pl","SubArea":"NE","Property":"Grant Park","PropertyID":167,"OwnedAcres":19.9,"UnownedAcres":0,"Zip":97212,"YearAcquired":1922}},{"type":"Feature","geometry":{"type":"Point","coordinates":[-122.732112,45.480477]},"properties":{"Address":"SW 55th Ave & Iowa St","SubArea":"SW","Property":"Pendleton Park","PropertyID":503,"OwnedAcres":5.52,"UnownedAcres":0,"Zip":97221,"YearAcquired":1955}},{"type":"Feature","geometry":{"type":"Point","coordinates":[-122.708084,45.504202]},"properties":{"Address":"SW Patton Rd & Old Orchard Rd","SubArea":"SW","Property":"Portland Heights Park","PropertyID":523,"OwnedAcres":5.3,"UnownedAcres":0,"Zip":97201,"YearAcquired":1945}},{"type":"Feature","geometry":{"type":"Point","coordinates":[-122.60491,45.503025]},"properties":{"Address":"SE 55th Ave & Woodward St","SubArea":"SE","Property":"Clinton Park","PropertyID":10,"OwnedAcres":12.55,"UnownedAcres":0,"Zip":97206,"YearAcquired":1948}},{"type":"Feature","geometry":{"type":"Point","coordinates":[-122.64692,45.515669]},"properties":{"Address":"SE 17th Ave & Taylor St","SubArea":"SE","Property":"Colonel Summers Park","PropertyID":12,"OwnedAcres":5.88,"UnownedAcres":0,"Zip":97214,"YearAcquired":1921}},{"type":"Feature","geometry":{"type":"Point","coordinates":[-122.670481,45.58022]},"properties":{"Address":"N Kerby Ave & Farragut St","SubArea":"NE","Property":"Farragut Park","PropertyID":119,"OwnedAcres":14,"UnownedAcres":0,"Zip":97217,"YearAcquired":1940}},{"type":"Feature","geometry":{"type":"Point","coordinates":[-122.544808,45.540661]},"properties":{"Address":"NE 117th Ave & Knott St","SubArea":"OE","Property":"Knott Park","PropertyID":220,"OwnedAcres":12.39,"UnownedAcres":0,"Zip":97220,"YearAcquired":1986}},{"type":"Feature","geometry":{"type":"Point","coordinates":[-122.665148,45.542166]},"properties":{"Address":"77 NE Knott St","SubArea":"NE","Property":"Matt Dishman Community Center & Pool","PropertyID":1117,"OwnedAcres":1.5,"UnownedAcres":0,"Zip":97212,"YearAcquired":1950}},{"type":"Feature","geometry":{"type":"Point","coordinates":[-122.595278,45.511448]},"properties":{"Address":"SE 60th Ave & Salmon St","SubArea":"SE","Property":"Mt Tabor Park","PropertyID":275,"OwnedAcres":190.82,"UnownedAcres":0,"Zip":97215,"YearAcquired":1909}},{"type":"Feature","geometry":{"type":"Point","coordinates":[-122.69151,45.52671]},"properties":{"Address":"NW 19th Ave & Glisan St","SubArea":"CC/NW","Property":"Couch Park","PropertyID":23,"OwnedAcres":2.39,"UnownedAcres":0,"Zip":97209,"YearAcquired":1977}},{"type":"Feature","geometry":{"type":"Point","coordinates":[-122.711306,45.587692]},"properties":{"Address":"9009 N Foss Ave","SubArea":"N","Property":"University Park Community Center","PropertyID":825,"OwnedAcres":0,"UnownedAcres":0,"Zip":97217,"YearAcquired":1953}},{"type":"Feature","geometry":{"type":"Point","coordinates":[-122.553131,45.515794]},"properties":{"Address":"740 SE 106th Ave","SubArea":"OE","Property":"East Portland Community Center & Pool","PropertyID":104,"OwnedAcres":0,"UnownedAcres":0,"Zip":97216,"YearAcquired":1998}},{"type":"Feature","geometry":{"type":"Point","coordinates":[-122.578376,45.526907]},"properties":{"Address":"8219 NE Glisan St","SubArea":"SE","Property":"Montavilla Community Center & Pool","PropertyID":1119,"OwnedAcres":0,"UnownedAcres":0,"Zip":97220,"YearAcquired":1930}},{"type":"Feature","geometry":{"type":"Point","coordinates":[-122.583644,45.49441]},"properties":{"Address":"SE 79th Ave & Center St","SubArea":"SE","Property":"Essex Park","PropertyID":116,"OwnedAcres":4.44,"UnownedAcres":0,"Zip":97206,"YearAcquired":1940}},{"type":"Feature","geometry":{"type":"Point","coordinates":[-122.656689,45.547083]},"properties":{"Address":"NE 7th Ave & Fremont St","SubArea":"NE","Property":"Irving Park","PropertyID":195,"OwnedAcres":16.26,"UnownedAcres":0,"Zip":97212,"YearAcquired":1920}},{"type":"Feature","geometry":{"type":"Point","coordinates":[-122.660276,45.46776]},"properties":{"Address":"SE 7th Ave & Miller St","SubArea":"SE","Property":"Sellwood Park","PropertyID":666,"OwnedAcres":16.65,"UnownedAcres":0,"Zip":97202,"YearAcquired":1909}},{"type":"Feature","geometry":{"type":"Point","coordinates":[-122.636068,45.47866]},"properties":{"Address":"SE 28th Ave & Woodstock Blvd","SubArea":"SE","Property":"Crystal Springs Rhododendron Garden","PropertyID":27,"OwnedAcres":9.49,"UnownedAcres":0,"Zip":97202,"YearAcquired":1923}},{"type":"Feature","geometry":{"type":"Point","coordinates":[-122.623023,45.566579]},"properties":{"Address":"NE 37th Ave & Ainsworth St","SubArea":"NE","Property":"Fernhill Park","PropertyID":120,"OwnedAcres":26.63,"UnownedAcres":0,"Zip":97211,"YearAcquired":1940}},{"type":"Feature","geometry":{"type":"Point","coordinates":[-122.659988,45.557229]},"properties":{"Address":"NE 6th Ave & Humboldt St","SubArea":"NE","Property":"King School Park","PropertyID":217,"OwnedAcres":3,"UnownedAcres":0,"Zip":97211,"YearAcquired":1979}},{"type":"Feature","geometry":{"type":"Point","coordinates":[-122.76407,45.645946]},"properties":{"Address":"N Marine Dr & Lombard St","SubArea":"N","Property":"Kelley Point Park","PropertyID":209,"OwnedAcres":104.16,"UnownedAcres":0,"Zip":97203,"YearAcquired":1984}},{"type":"Feature","geometry":{"type":"Point","coordinates":[-122.716266,45.525195]},"properties":{"Address":"3229 NW Pittock Dr","SubArea":"NW","Property":"Pittock Mansion","PropertyID":1127,"OwnedAcres":0,"UnownedAcres":0,"Zip":97210,"YearAcquired":1964}},{"type":"Feature","geometry":{"type":"Point","coordinates":[-122.534821,45.474252]},"properties":{"Address":"6704 SE 122nd Ave","SubArea":"OE","Property":"Leach Botanical Garden","PropertyID":226,"OwnedAcres":15.85,"UnownedAcres":0,"Zip":97236,"YearAcquired":1972}},{"type":"Feature","geometry":{"type":"Point","coordinates":[-122.707926,45.498861]},"properties":{"Address":"SW Council Crest Dr","SubArea":"SW","Property":"Council Crest Park","PropertyID":24,"OwnedAcres":43.51,"UnownedAcres":0,"Zip":97201,"YearAcquired":1937}},{"type":"Feature","geometry":{"type":"Point","coordinates":[-122.77147,45.572037]},"properties":{"Address":"NW 29th Ave & Upshur St to Newberry Rd","SubArea":"CC/NW","Property":"Forest Park","PropertyID":127,"OwnedAcres":5171,"UnownedAcres":0,"Zip":"97210-97229-97231","YearAcquired":1947}},{"type":"Feature","geometry":{"type":"Point","coordinates":[-122.705357,45.519259]},"properties":{"Address":"400 SW Kingston Ave","SubArea":"CC/NW","Property":"Washington Park - International Rose Test Garden","PropertyID":1113,"OwnedAcres":0,"UnownedAcres":0,"Zip":97210,"YearAcquired":1917}},{"type":"Feature","geometry":{"type":"Point","coordinates":[-122.526158,45.509461]},"properties":{"Address":"SE 135th Ave & Mill St","SubArea":"OE","Property":"Lincoln Park","PropertyID":239,"OwnedAcres":7.07,"UnownedAcres":0,"Zip":97233,"YearAcquired":1993}},{"type":"Feature","geometry":{"type":"Point","coordinates":[-122.716734,45.514781]},"properties":{"Address":"4000 SW Fairview Blvd","SubArea":"CC/NW","Property":"Hoyt Arboretum","PropertyID":189,"OwnedAcres":321.04,"UnownedAcres":0,"Zip":97221,"YearAcquired":1922}},{"type":"Feature","geometry":{"type":"Point","coordinates":[-122.693782,45.572655]},"properties":{"Address":"N Bryant St & Delaware Ave","SubArea":"N","Property":"Arbor Lodge Park","PropertyID":52,"OwnedAcres":8.69,"UnownedAcres":0,"Zip":97217,"YearAcquired":1940}},{"type":"Feature","geometry":{"type":"Point","coordinates":[-122.680531,45.501629]},"properties":{"Address":"SW 2nd Ave & Woods St","SubArea":"CC/NW","Property":"Lair Hill Park","PropertyID":222,"OwnedAcres":3.24,"UnownedAcres":0,"Zip":97201,"YearAcquired":1927}},{"type":"Feature","geometry":{"type":"Point","coordinates":[-122.725822,45.590305]},"properties":{"Address":"N Geneva Ave & Fessenden St","SubArea":"N","Property":"Northgate Park","PropertyID":451,"OwnedAcres":10.72,"UnownedAcres":0,"Zip":97203,"YearAcquired":1940}},{"type":"Feature","geometry":{"type":"Point","coordinates":[-122.542845,45.486433]},"properties":{"Address":"SE 118th Ave & Raymond St","SubArea":"OE","Property":"Raymond Park","PropertyID":561,"OwnedAcres":5.94,"UnownedAcres":0,"Zip":97266,"YearAcquired":1993}},{"type":"Feature","geometry":{"type":"Point","coordinates":[-122.57803,45.527815]},"properties":{"Address":"NE 82nd Ave & Glisan St","SubArea":"NE","Property":"Montavilla Park","PropertyID":268,"OwnedAcres":9.46,"UnownedAcres":0,"Zip":97220,"YearAcquired":1921}},{"type":"Feature","geometry":{"type":"Point","coordinates":[-122.716352,45.589772]},"properties":{"Address":"N Trenton St & Newman Ave","SubArea":"N","Property":"McCoy Park","PropertyID":1258,"OwnedAcres":3.82,"UnownedAcres":0,"Zip":97203,"YearAcquired":2005}}]}